CORAL                   
1 67684U 98067YA  26080.52289188  .00108459  00000+0  14993-2 0  9994
2 67684  51.6312  12.4272 0012074 217.4243 142.5908 15.56214538  6630
GXIBA-1                 
1 67685U 98067YB  26080.82268782  .00057809  00000+0  89955-3 0  9998
2 67685  51.6328  11.4283 0011670 226.2975 133.7049 15.53267363  6673
UITMSAT-2               
1 67686U 98067YC  26079.20424217  .00036971  00000+0  56833-3 0  9992
2 67686  51.6331  19.3725 0008503 189.8163 170.2663 15.53839493  6420
HMU-SAT2                
1 67687U 98067YD  26080.82649173  .00056664  00000+0  89099-3 0  9994
2 67687  51.6325  11.4561 0008303 199.0980 160.9700 15.53024657  6597
LEOPARD                 
1 67688U 98067YE  26080.10933344  .00050861  00000+0  78512-3 0  9993
2 67688  51.6330  14.9166 0008406 194.0087 166.0671 15.53580320  6486
CREW DRAGON 12          
1 67796U 26031A   26080.84027526  .00015105  00000+0  28726-3 0  9996
2 67796  51.6343  12.2942 0006175 217.6861 142.3695 15.48433940558132
